#aV2015 11  5  0  0  0.00000000     288 DD+AD WGS84 FIT  NGA
## 1869 345600.00000000   300.00000000 57331 0.0000000000000
+   31     1  2  3  4  5  6  7  8  9 11 12 13 14 15 16 17 18
+         19 20 21 22 23 24 25 26 27 28 29 30 31 32  0  0  0
+          0  0  0  0  0  0  0  0  0  0  0  0  0  0  0  0  0
+          0  0  0  0  0  0  0  0  0  0  0  0  0  0  0  0  0
+          0  0  0  0  0  0  0  0  0  0  0  0  0  0  0  0  0
++         2  2  2  2  2  2  2  2  2  2  2  2  2  2  2  2  2
++         2  2  2  2  2  2  2  2  2  2  2  2  2  2  0  0  0
++         0  0  0  0  0  0  0  0  0  0  0  0  0  0  0  0  0
++         0  0  0  0  0  0  0  0  0  0  0  0  0  0  0  0  0
++         0  0  0  0  0  0  0  0  0  0  0  0  0  0  0  0  0
%c cc cc ccc ccc cccc cccc cccc cccc ccccc ccccc ccccc ccccc
%c cc cc ccc ccc cccc cccc cccc cccc ccccc ccccc ccccc ccccc
%f  0.0000000  0.000000000  0.00000000000  0.000000000000000
%f  0.0000000  0.000000000  0.00000000000  0.000000000000000
%i    0    0    0    0      0      0      0      0         0
%i    0    0    0    0      0      0      0      0         0
/*      NGA, ST. LOUIS,MO.                                  
/*   EPHEMERIS COMPUTED FROM 2 DAYS OF DATA                 
/*   EPOCHA v2.4 SMOOTHER                                   
/*   G1762 IERS2010 SATAF SATAPC                            
*  2015 11  5 15 35  0.00000000
P  1  22355.467936  14013.889156  -3972.165975      3.826878                    
V  1  -5536.040677    114.850619 -31135.052092      0.007986                    
P  2  -3487.180503 -17551.116709  20142.405982    594.964282                    
V  2  22990.834921   9009.477561  11634.608994      0.010826                    
P  3  12877.957354  16251.709634  16588.013791     16.078797                    
V  3   -288.646454  21151.735113 -20521.931540     -0.028441                    
P  4  16010.927548  17452.388072 -12627.931236    -42.191645                    
V  4 -15081.960993  -4115.238736 -25278.196338     -0.054463                    
P  5  -2055.142271 -26371.377662    224.204909   -177.774482                    
V  5   3463.835801     74.561454  31560.246674      0.038721                    
P  6  10359.655786 -11640.505794  21504.048298     89.736923                    
V  6  24434.897439  12201.475398  -5175.004226      0.068087                    
P  7  24184.209719   4296.705378 -10461.873067    481.156932                    
V  7  10953.976436   7860.515020  27822.657808     -0.009872                    
P  8   7868.789627  13007.291580 -21730.597154    -11.363511                    
V  8 -22863.391167  15652.226492   1078.679036     -0.014367                    
P  9  22979.400950  -5455.355396  12153.322749      6.033303                    
V  9 -11326.031934  10790.886573  26225.489878      0.052547                    
P 11  20686.544357  11857.542230 -12329.717455   -614.410984                    
V 11 -15257.147095   2346.978079 -24369.451645     -0.022205                    
P 12 -10438.966035 -19178.789125  15163.992714    342.897193                    
V 12    770.774708 -19328.568207 -23545.380910      0.031827                    
P 13   2692.304704 -17078.700134 -20324.040473   -162.059918                    
V 13  22892.923308 -11141.561695  12377.417698     -0.028106                    
P 14 -21657.851872  14961.577257   3116.958595     23.614344                    
V 14  -4547.764132   -553.497522 -31633.823633     -0.024129                    
P 15 -10711.724612 -11777.493597 -21376.457814   -280.583129                    
V 15  21445.611787 -16401.998312  -1379.188037     -0.019690                    
P 16   -131.069466  26348.352568    475.872277    -69.466775                    
V 16  -2179.438868   -692.024871  32652.080988      0.036782                    
P 17  21158.236066 -15603.706650   3154.400249   -193.077872                    
V 17   4426.641052    229.441733 -31860.698633     -0.012517                    
P 18 -15399.607044   3600.459937 -20815.708968    449.945430                    
V 18  -3251.308351 -27595.875148  -2588.955225      0.037917                    
P 19  22971.121030  -1898.672820 -13823.826903   -522.403429                    
V 19 -14098.337741   9575.776075 -24729.016484     -0.004673                    
P 20 -13387.168280 -18325.177715 -13898.070100    368.674478                    
V 20    267.683150 -17755.030846  23494.015896      0.029316                    
P 21 -23305.486163   -632.598466 -12293.985724   -491.497159                    
V 21 -13967.114529  -9598.151359  25186.963008     -0.024795                    
P 22 -10514.143293  17946.391016 -16182.584633    407.661730                    
V 22  -4832.707529 -20800.768765 -19818.830258      0.034269                    
P 23  16843.256886   5900.415093  19967.520104   -142.794685                    
V 23 -20022.360617  14847.649450  12177.181416     -0.020875                    
P 24 -21053.125182 -14907.744832  -6718.366807     -7.491968                    
V 24   8862.664198    958.679054 -29888.047277     -0.006347                    
P 25 -14758.654429  -5754.940952  21248.914436    -62.962541                    
V 25  -1494.363376 -27091.619404  -8172.312512     -0.056702                    
P 26  -5573.990617  23683.076391  10639.354897   -110.697569                    
V 26  -3539.339270 -13272.214953  27709.545231     -0.148043                    
P 27  -3998.833386  18364.635045 -18741.396879     33.397564                    
V 27 -20363.698135  12331.894105  16573.140207      0.031636                    
P 28  11905.946014 -14473.886061 -18159.020758    479.360411                    
V 28   1317.603707  24326.982721 -17988.392177      0.026801                    
P 29 -22245.617879   2103.786228  14344.347030    643.066216                    
V 29  14611.216307 -10961.590844  24323.770372      0.016950                    
P 30  18526.961042  -4517.767615 -18520.438717     52.346190                    
V 30  19639.534109  13013.795404  16389.972571      0.057862                    
P 31  -9766.840243  11712.851248  21899.682454    296.456904                    
V 31 -24254.226896 -12816.879314  -3647.196647     -0.014612                    
P 32   5508.687577  25052.232874   7831.468996      7.623511                    
V 32  -2661.566139   9888.118443 -28989.214642      0.117314                    
EOF
